start=new Date('2022-05-19T00:00:00.000Z').valueOf();
sats=[{"BSTAR":"0.00005194300000","MEAN_MOTION_DDOT":"0.0000000000000","OBJECT_NAME":"STARLINK-1455","SEMIMAJOR_AXIS":"6925.374","MEAN_MOTION":"15.06391827","TIME_SYSTEM":"UTC","ELEMENT_SET_NO":"999","INCLINATION":"53.0539","ARG_OF_PERICENTER":"45.7864","PERIOD":"95.593","CENTER_NAME":"EARTH","COUNTRY_CODE":"US","CLASSIFICATION_TYPE":"U","MEAN_ANOMALY":"314.3275","ECCENTRICITY":"0.00018350","RCS_SIZE":"LARGE","NORAD_CAT_ID":"45672","OBJECT_TYPE":"PAYLOAD","TLE_LINE2":"2 45672  53.0539 160.7194 0001835  45.7864 314.3275 15.06391827109502","MEAN_ELEMENT_THEORY":"SGP4","APOAPSIS":"548.509","DECAY_DATE":null,"PERIAPSIS":"545.968","EPOCH":"2022-05-18T18:24:23.096736","TLE_LINE1":"1 45672U 20035R   22138.76693399  .00000492  00000-0  51943-4 0  9993","SITE":"AFETR","FILE":"3452356","EPHEMERIS_TYPE":"0","MEAN_MOTION_DOT":"0.00000492","REF_FRAME":"TEME","LAUNCH_DATE":"2020-06-04","OBJECT_ID":"2020-035R","REV_AT_EPOCH":"10950","RA_OF_ASC_NODE":"160.7194","GP_ID":"203902171"},{"TIME_SYSTEM":"UTC","ELEMENT_SET_NO":"999","INCLINATION":"53.0538","ARG_OF_PERICENTER":"52.9722","SEMIMAJOR_AXIS":"6925.357","MEAN_MOTION":"15.06397091","OBJECT_NAME":"STARLINK-1456","BSTAR":"-0.00007259500000","MEAN_MOTION_DDOT":"0.0000000000000","RCS_SIZE":"LARGE","NORAD_CAT_ID":"45673","MEAN_ANOMALY":"307.1430","ECCENTRICITY":"0.00017910","PERIOD":"95.592","CENTER_NAME":"EARTH","COUNTRY_CODE":"US","CLASSIFICATION_TYPE":"U","TLE_LINE1":"1 45673U 20035S   22138.83787109 -.00001363  00000-0 -72595-4 0  9991","EPOCH":"2022-05-18T20:06:32.062176","SITE":"AFETR","APOAPSIS":"548.463","DECAY_DATE":null,"PERIAPSIS":"545.982","TLE_LINE2":"2 45673  53.0538 190.3808 0001791  52.9722 307.1430 15.06397091108698","MEAN_ELEMENT_THEORY":"SGP4","OBJECT_TYPE":"PAYLOAD","REV_AT_EPOCH":"10869","GP_ID":"203879717","RA_OF_ASC_NODE":"190.3808","LAUNCH_DATE":"2020-06-04","OBJECT_ID":"2020-035S","FILE":"3452205","EPHEMERIS_TYPE":"0","REF_FRAME":"TEME","MEAN_MOTION_DOT":"-0.00001363"},{"OBJECT_NAME":"STARLINK-1457","MEAN_MOTION_DDOT":"0.0000000000000","BSTAR":"0.00033256000000","ELEMENT_SET_NO":"999","ARG_OF_PERICENTER":"63.0056","INCLINATION":"53.0527","TIME_SYSTEM":"UTC","MEAN_MOTION":"15.06411259","SEMIMAJOR_AXIS":"6925.314","ECCENTRICITY":"0.00014540","MEAN_ANOMALY":"297.1081","CLASSIFICATION_TYPE":"U","COUNTRY_CODE":"US","CENTER_NAME":"EARTH","PERIOD":"95.591","NORAD_CAT_ID":"45674","RCS_SIZE":"LARGE","MEAN_ELEMENT_THEORY":"SGP4","TLE_LINE2":"2 45674  53.0527 190.3594 0001454  63.0056 297.1081 15.06411259109074","OBJECT_TYPE":"PAYLOAD","SITE":"AFETR","TLE_LINE1":"1 45674U 20035T   22138.84523434  .00004677  00000-0  33256-3 0  9991","EPOCH":"2022-05-18T20:17:08.246976","PERIAPSIS":"546.172","DECAY_DATE":null,"APOAPSIS":"548.186","REF_FRAME":"TEME","MEAN_MOTION_DOT":"0.00004677","EPHEMERIS_TYPE":"0","FILE":"3452356","GP_ID":"203903672","RA_OF_ASC_NODE":"190.3594","REV_AT_EPOCH":"10907","OBJECT_ID":"2020-035T","LAUNCH_DATE":"2020-06-04"},{"MEAN_ELEMENT_THEORY":"SGP4","TLE_LINE2":"2 45675  53.0554 190.4091 0002230  38.8465 321.2683 15.06407568109069","OBJECT_TYPE":"PAYLOAD","SITE":"AFETR","TLE_LINE1":"1 45675U 20035U   22138.83417514  .00000965  00000-0  83667-4 0  9990","EPOCH":"2022-05-18T20:01:12.732096","DECAY_DATE":null,"PERIAPSIS":"545.646","APOAPSIS":"548.735","MEAN_MOTION_DOT":"0.00000965","REF_FRAME":"TEME","EPHEMERIS_TYPE":"0","FILE":"3452356","REV_AT_EPOCH":"10906","RA_OF_ASC_NODE":"190.4091","GP_ID":"203903922","OBJECT_ID":"2020-035U","LAUNCH_DATE":"2020-06-04","OBJECT_NAME":"STARLINK-1458","MEAN_MOTION_DDOT":"0.0000000000000","BSTAR":"0.00008366700000","TIME_SYSTEM":"UTC","INCLINATION":"53.0554","ELEMENT_SET_NO":"999","ARG_OF_PERICENTER":"38.8465","SEMIMAJOR_AXIS":"6925.325","MEAN_MOTION":"15.06407568","MEAN_ANOMALY":"321.2683","ECCENTRICITY":"0.00022300","COUNTRY_CODE":"US","CLASSIFICATION_TYPE":"U","PERIOD":"95.592","CENTER_NAME":"EARTH","RCS_SIZE":"LARGE","NORAD_CAT_ID":"45675"},{"MEAN_ELEMENT_THEORY":"SGP4","TLE_LINE2":"2 45676  53.0536 190.2552 0001970  45.4994 314.6156 15.06403493109065","OBJECT_TYPE":"PAYLOAD","SITE":"AFETR","TLE_LINE1":"1 45676U 20035V   22138.87104736  .00003911  00000-0  28128-3 0  9998","EPOCH":"2022-05-18T20:54:18.491904","PERIAPSIS":"545.839","DECAY_DATE":null,"APOAPSIS":"548.567","MEAN_MOTION_DOT":"0.00003911","REF_FRAME":"TEME","EPHEMERIS_TYPE":"0","FILE":"3452356","REV_AT_EPOCH":"10906","RA_OF_ASC_NODE":"190.2552","GP_ID":"203902671","OBJECT_ID":"2020-035V","LAUNCH_DATE":"2020-06-04","OBJECT_NAME":"STARLINK-1460","MEAN_MOTION_DDOT":"0.0000000000000","BSTAR":"0.00028128000000","TIME_SYSTEM":"UTC","ARG_OF_PERICENTER":"45.4994","ELEMENT_SET_NO":"999","INCLINATION":"53.0536","SEMIMAJOR_AXIS":"6925.338","MEAN_MOTION":"15.06403493","MEAN_ANOMALY":"314.6156","ECCENTRICITY":"0.00019700","COUNTRY_CODE":"US","CLASSIFICATION_TYPE":"U","CENTER_NAME":"EARTH","PERIOD":"95.592","RCS_SIZE":"LARGE","NORAD_CAT_ID":"45676"},{"TLE_LINE2":"2 45677  53.0534 191.6815 0001878  49.7166 310.3987 15.06404700108646","MEAN_ELEMENT_THEORY":"SGP4","OBJECT_TYPE":"PAYLOAD","SITE":"AFETR","TLE_LINE1":"1 45677U 20035W   22138.55035813 -.00000508  00000-0 -15175-4 0  9993","EPOCH":"2022-05-18T13:12:30.942432","DECAY_DATE":null,"PERIAPSIS":"545.899","APOAPSIS":"548.500","REF_FRAME":"TEME","MEAN_MOTION_DOT":"-0.00000508","FILE":"3452151","EPHEMERIS_TYPE":"0","RA_OF_ASC_NODE":"191.6815","GP_ID":"203878837","REV_AT_EPOCH":"10864","OBJECT_ID":"2020-035W","LAUNCH_DATE":"2020-06-04","OBJECT_NAME":"STARLINK-1392","MEAN_MOTION_DDOT":"0.0000000000000","BSTAR":"-0.00001517500000","INCLINATION":"53.0534","ELEMENT_SET_NO":"999","ARG_OF_PERICENTER":"49.7166","TIME_SYSTEM":"UTC","MEAN_MOTION":"15.06404700","SEMIMAJOR_AXIS":"6925.334","ECCENTRICITY":"0.00018780","MEAN_ANOMALY":"310.3987","CLASSIFICATION_TYPE":"U","COUNTRY_CODE":"US","CENTER_NAME":"EARTH","PERIOD":"95.592","NORAD_CAT_ID":"45677","RCS_SIZE":"LARGE"},{"COUNTRY_CODE":"US","CLASSIFICATION_TYPE":"U","PERIOD":"95.592","CENTER_NAME":"EARTH","MEAN_ANOMALY":"312.3329","ECCENTRICITY":"0.00018280","RCS_SIZE":"LARGE","NORAD_CAT_ID":"45678","MEAN_MOTION_DDOT":"0.0000000000000","BSTAR":"0.00007727600000","OBJECT_NAME":"STARLINK-1393","SEMIMAJOR_AXIS":"6925.350","MEAN_MOTION":"15.06399583","TIME_SYSTEM":"UTC","INCLINATION":"53.0541","ELEMENT_SET_NO":"999","ARG_OF_PERICENTER":"47.7815","MEAN_MOTION_DOT":"0.00000870","REF_FRAME":"TEME","EPHEMERIS_TYPE":"0","FILE":"3452356","OBJECT_ID":"2020-035X","LAUNCH_DATE":"2020-06-04","REV_AT_EPOCH":"10921","RA_OF_ASC_NODE":"180.5092","GP_ID":"203903173","OBJECT_TYPE":"PAYLOAD","TLE_LINE2":"2 45678  53.0541 180.5092 0001828  47.7815 312.3329 15.06399583109211","MEAN_ELEMENT_THEORY":"SGP4","PERIAPSIS":"545.949","DECAY_DATE":null,"APOAPSIS":"548.481","SITE":"AFETR","EPOCH":"2022-05-18T19:25:23.566656","TLE_LINE1":"1 45678U 20035X   22138.80930054  .00000870  00000-0  77276-4 0  9993"},{"OBJECT_NAME":"STARLINK-1394","MEAN_MOTION_DDOT":"0.0000000000000","BSTAR":"0.00007791900000","TIME_SYSTEM":"UTC","ELEMENT_SET_NO":"999","ARG_OF_PERICENTER":"61.3380","INCLINATION":"53.0545","SEMIMAJOR_AXIS":"6925.374","MEAN_MOTION":"15.06391685","MEAN_ANOMALY":"298.7770","ECCENTRICITY":"0.00016000","COUNTRY_CODE":"US","CLASSIFICATION_TYPE":"U","PERIOD":"95.593","CENTER_NAME":"EARTH","RCS_SIZE":"LARGE","NORAD_CAT_ID":"45679","TLE_LINE2":"2 45679  53.0545 180.5177 0001600  61.3380 298.7770 15.06391685108836","MEAN_ELEMENT_THEORY":"SGP4","OBJECT_TYPE":"PAYLOAD","SITE":"AFETR","TLE_LINE1":"1 45679U 20035Y   22138.81299577  .00000879  00000-0  77919-4 0  9996","EPOCH":"2022-05-18T19:30:42.834528","DECAY_DATE":null,"PERIAPSIS":"546.131","APOAPSIS":"548.347","REF_FRAME":"TEME","MEAN_MOTION_DOT":"0.00000879","FILE":"3452182","EPHEMERIS_TYPE":"0","REV_AT_EPOCH":"10883","RA_OF_ASC_NODE":"180.5177","GP_ID":"203879257","OBJECT_ID":"2020-035Y","LAUNCH_DATE":"2020-06-04"},{"COUNTRY_CODE":"US","CLASSIFICATION_TYPE":"U","CENTER_NAME":"EARTH","PERIOD":"95.592","MEAN_ANOMALY":"314.2327","ECCENTRICITY":"0.00017990","RCS_SIZE":"LARGE","NORAD_CAT_ID":"45680","MEAN_MOTION_DDOT":"0.0000000000000","BSTAR":"0.00009473200000","OBJECT_NAME":"STARLINK-1395","SEMIMAJOR_AXIS":"6925.362","MEAN_MOTION":"15.06395627","TIME_SYSTEM":"UTC","ELEMENT_SET_NO":"999","ARG_OF_PERICENTER":"45.8810","INCLINATION":"53.0539","REF_FRAME":"TEME","MEAN_MOTION_DOT":"0.00001130","FILE":"3452356","EPHEMERIS_TYPE":"0","OBJECT_ID":"2020-035Z","LAUNCH_DATE":"2020-06-04","REV_AT_EPOCH":"10922","GP_ID":"203902172","RA_OF_ASC_NODE":"180.4818","OBJECT_TYPE":"PAYLOAD","TLE_LINE2":"2 45680  53.0539 180.4818 0001799  45.8810 314.2327 15.06395627109222","MEAN_ELEMENT_THEORY":"SGP4","DECAY_DATE":null,"PERIAPSIS":"545.981","APOAPSIS":"548.473","SITE":"AFETR","TLE_LINE1":"1 45680U 20035Z   22138.82035979  .00001130  00000-0  94732-4 0  9996","EPOCH":"2022-05-18T19:41:19.085856"},{"PERIAPSIS":"546.019","DECAY_DATE":null,"APOAPSIS":"548.417","SITE":"AFETR","TLE_LINE1":"1 45681U 20035AA  22138.81667672  .00002349  00000-0  17656-3 0  9999","EPOCH":"2022-05-18T19:36:00.868608","OBJECT_TYPE":"PAYLOAD","TLE_LINE2":"2 45681  53.0560 180.4915 0001731  57.5234 302.5922 15.06398465109236","MEAN_ELEMENT_THEORY":"SGP4","OBJECT_ID":"2020-035AA","LAUNCH_DATE":"2020-06-04","REV_AT_EPOCH":"10923","RA_OF_ASC_NODE":"180.4915","GP_ID":"203902422","REF_FRAME":"TEME","MEAN_MOTION_DOT":"0.00002349","FILE":"3452356","EPHEMERIS_TYPE":"0","SEMIMAJOR_AXIS":"6925.353","MEAN_MOTION":"15.06398465","TIME_SYSTEM":"UTC","ELEMENT_SET_NO":"999","ARG_OF_PERICENTER":"57.5234","INCLINATION":"53.0560","MEAN_MOTION_DDOT":"0.0000000000000","BSTAR":"0.00017656000000","OBJECT_NAME":"STARLINK-1396","RCS_SIZE":"LARGE","NORAD_CAT_ID":"45681","COUNTRY_CODE":"US","CLASSIFICATION_TYPE":"U","CENTER_NAME":"EARTH","PERIOD":"95.592","MEAN_ANOMALY":"302.5922","ECCENTRICITY":"0.00017310"}];
